CCSDS_OMM_VERS = 2.0
CREATION_DATE  = 
ORIGINATOR     = 

OBJECT_NAME    = STARLINK-36840
OBJECT_ID      = 2026-034A
CENTER_NAME    = EARTH
REF_FRAME      = TEME
TIME_SYSTEM    = UTC
MEAN_ELEMENT_THEORY = SGP/SGP4

EPOCH          = 2026-03-06T19:45:53.386848
MEAN_MOTION    = 15.80965693
ECCENTRICITY   = .0000818
INCLINATION    = 53.1595
RA_OF_ASC_NODE = 225.7221
ARG_OF_PERICENTER = 75.5904
MEAN_ANOMALY   = 284.5210

EPHEMERIS_TYPE = 0
CLASSIFICATION_TYPE = U
NORAD_CAT_ID   = 67850
ELEMENT_SET_NO = 999
REV_AT_EPOCH   = 348
BSTAR          = .12524E-2
MEAN_MOTION_DOT = .255002E-2
MEAN_MOTION_DDOT = 0

CCSDS_OMM_VERS = 2.0
CREATION_DATE  = 
ORIGINATOR     = 

OBJECT_NAME    = STARLINK-36348
OBJECT_ID      = 2026-034B
CENTER_NAME    = EARTH
REF_FRAME      = TEME
TIME_SYSTEM    = UTC
MEAN_ELEMENT_THEORY = SGP/SGP4

EPOCH          = 2026-03-06T19:44:48.325920
MEAN_MOTION    = 15.80933898
ECCENTRICITY   = .0001129
INCLINATION    = 53.1596
RA_OF_ASC_NODE = 225.7159
ARG_OF_PERICENTER = 57.3053
MEAN_ANOMALY   = 302.8078

EPHEMERIS_TYPE = 0
CLASSIFICATION_TYPE = U
NORAD_CAT_ID   = 67851
ELEMENT_SET_NO = 999
REV_AT_EPOCH   = 348
BSTAR          = .68243E-3
MEAN_MOTION_DOT = .136522E-2
MEAN_MOTION_DDOT = 0

CCSDS_OMM_VERS = 2.0
CREATION_DATE  = 
ORIGINATOR     = 

OBJECT_NAME    = STARLINK-36276
OBJECT_ID      = 2026-034C
CENTER_NAME    = EARTH
REF_FRAME      = TEME
TIME_SYSTEM    = UTC
MEAN_ELEMENT_THEORY = SGP/SGP4

EPOCH          = 2026-03-06T19:43:42.261888
MEAN_MOTION    = 15.80936227
ECCENTRICITY   = .0000746
INCLINATION    = 53.1595
RA_OF_ASC_NODE = 225.7111
ARG_OF_PERICENTER = 85.9002
MEAN_ANOMALY   = 274.2106

EPHEMERIS_TYPE = 0
CLASSIFICATION_TYPE = U
NORAD_CAT_ID   = 67852
ELEMENT_SET_NO = 999
REV_AT_EPOCH   = 348
BSTAR          = .89426E-3
MEAN_MOTION_DOT = .180052E-2
MEAN_MOTION_DDOT = 0

CCSDS_OMM_VERS = 2.0
CREATION_DATE  = 
ORIGINATOR     = 

OBJECT_NAME    = STARLINK-36785
OBJECT_ID      = 2026-034D
CENTER_NAME    = EARTH
REF_FRAME      = TEME
TIME_SYSTEM    = UTC
MEAN_ELEMENT_THEORY = SGP/SGP4

EPOCH          = 2026-03-06T19:42:38.628288
MEAN_MOTION    = 15.80974126
ECCENTRICITY   = .0000738
INCLINATION    = 53.1595
RA_OF_ASC_NODE = 225.7058
ARG_OF_PERICENTER = 50.2384
MEAN_ANOMALY   = 309.8704

EPHEMERIS_TYPE = 0
CLASSIFICATION_TYPE = U
NORAD_CAT_ID   = 67853
ELEMENT_SET_NO = 999
REV_AT_EPOCH   = 348
BSTAR          = .121E-2
MEAN_MOTION_DOT = .246205E-2
MEAN_MOTION_DDOT = 0

CCSDS_OMM_VERS = 2.0
CREATION_DATE  = 
ORIGINATOR     = 

OBJECT_NAME    = STARLINK-36608
OBJECT_ID      = 2026-034E
CENTER_NAME    = EARTH
REF_FRAME      = TEME
TIME_SYSTEM    = UTC
MEAN_ELEMENT_THEORY = SGP/SGP4

EPOCH          = 2026-03-06T19:41:33.880992
MEAN_MOTION    = 15.80953226
ECCENTRICITY   = .0000491
INCLINATION    = 53.1598
RA_OF_ASC_NODE = 225.7011
ARG_OF_PERICENTER = 74.3449
MEAN_ANOMALY   = 285.7628

EPHEMERIS_TYPE = 0
CLASSIFICATION_TYPE = U
NORAD_CAT_ID   = 67854
ELEMENT_SET_NO = 999
REV_AT_EPOCH   = 347
BSTAR          = .94051E-3
MEAN_MOTION_DOT = .189766E-2
MEAN_MOTION_DDOT = 0

CCSDS_OMM_VERS = 2.0
CREATION_DATE  = 
ORIGINATOR     = 

OBJECT_NAME    = STARLINK-36838
OBJECT_ID      = 2026-034F
CENTER_NAME    = EARTH
REF_FRAME      = TEME
TIME_SYSTEM    = UTC
MEAN_ELEMENT_THEORY = SGP/SGP4

EPOCH          = 2026-03-06T19:40:28.915968
MEAN_MOTION    = 15.81001602
ECCENTRICITY   = .0000618
INCLINATION    = 53.1595
RA_OF_ASC_NODE = 225.6957
ARG_OF_PERICENTER = 53.4858
MEAN_ANOMALY   = 306.6222

EPHEMERIS_TYPE = 0
CLASSIFICATION_TYPE = U
NORAD_CAT_ID   = 67855
ELEMENT_SET_NO = 999
REV_AT_EPOCH   = 348
BSTAR          = .15344E-2
MEAN_MOTION_DOT = .315347E-2
MEAN_MOTION_DDOT = 0

CCSDS_OMM_VERS = 2.0
CREATION_DATE  = 
ORIGINATOR     = 

OBJECT_NAME    = STARLINK-36843
OBJECT_ID      = 2026-034G
CENTER_NAME    = EARTH
REF_FRAME      = TEME
TIME_SYSTEM    = UTC
MEAN_ELEMENT_THEORY = SGP/SGP4

EPOCH          = 2026-03-06T19:38:19.249440
MEAN_MOTION    = 15.80992051
ECCENTRICITY   = .0000558
INCLINATION    = 53.1595
RA_OF_ASC_NODE = 225.6857
ARG_OF_PERICENTER = 28.7121
MEAN_ANOMALY   = 331.3933

EPHEMERIS_TYPE = 0
CLASSIFICATION_TYPE = U
NORAD_CAT_ID   = 67856
ELEMENT_SET_NO = 999
REV_AT_EPOCH   = 348
BSTAR          = .13817E-2
MEAN_MOTION_DOT = .282678E-2
MEAN_MOTION_DDOT = 0

CCSDS_OMM_VERS = 2.0
CREATION_DATE  = 
ORIGINATOR     = 

OBJECT_NAME    = STARLINK-36828
OBJECT_ID      = 2026-034H
CENTER_NAME    = EARTH
REF_FRAME      = TEME
TIME_SYSTEM    = UTC
MEAN_ELEMENT_THEORY = SGP/SGP4

EPOCH          = 2026-03-06T19:39:24.445152
MEAN_MOTION    = 15.80949002
ECCENTRICITY   = .0001016
INCLINATION    = 53.1593
RA_OF_ASC_NODE = 225.6913
ARG_OF_PERICENTER = 79.1731
MEAN_ANOMALY   = 280.9406

EPHEMERIS_TYPE = 0
CLASSIFICATION_TYPE = U
NORAD_CAT_ID   = 67857
ELEMENT_SET_NO = 999
REV_AT_EPOCH   = 348
BSTAR          = .97465E-3
MEAN_MOTION_DOT = .1968E-2
MEAN_MOTION_DDOT = 0

CCSDS_OMM_VERS = 2.0
CREATION_DATE  = 
ORIGINATOR     = 

OBJECT_NAME    = STARLINK-36837
OBJECT_ID      = 2026-034J
CENTER_NAME    = EARTH
REF_FRAME      = TEME
TIME_SYSTEM    = UTC
MEAN_ELEMENT_THEORY = SGP/SGP4

EPOCH          = 2026-03-06T19:37:14.571264
MEAN_MOTION    = 15.80955953
ECCENTRICITY   = .0000684
INCLINATION    = 53.1595
RA_OF_ASC_NODE = 225.6801
ARG_OF_PERICENTER = 33.0875
MEAN_ANOMALY   = 327.0191

EPHEMERIS_TYPE = 0
CLASSIFICATION_TYPE = U
NORAD_CAT_ID   = 67858
ELEMENT_SET_NO = 999
REV_AT_EPOCH   = 348
BSTAR          = .99615E-3
MEAN_MOTION_DOT = .201329E-2
MEAN_MOTION_DDOT = 0

CCSDS_OMM_VERS = 2.0
CREATION_DATE  = 
ORIGINATOR     = 

OBJECT_NAME    = STARLINK-36393
OBJECT_ID      = 2026-034K
CENTER_NAME    = EARTH
REF_FRAME      = TEME
TIME_SYSTEM    = UTC
MEAN_ELEMENT_THEORY = SGP/SGP4

EPOCH          = 2026-03-06T19:36:09.835200
MEAN_MOTION    = 15.80951315
ECCENTRICITY   = .0000774
INCLINATION    = 53.1597
RA_OF_ASC_NODE = 225.6748
ARG_OF_PERICENTER = 69.1796
MEAN_ANOMALY   = 290.9310

EPHEMERIS_TYPE = 0
CLASSIFICATION_TYPE = U
NORAD_CAT_ID   = 67859
ELEMENT_SET_NO = 999
REV_AT_EPOCH   = 348
BSTAR          = .98078E-3
MEAN_MOTION_DOT = .198094E-2
MEAN_MOTION_DDOT = 0

CCSDS_OMM_VERS = 2.0
CREATION_DATE  = 
ORIGINATOR     = 

OBJECT_NAME    = STARLINK-35873
OBJECT_ID      = 2026-034L
CENTER_NAME    = EARTH
REF_FRAME      = TEME
TIME_SYSTEM    = UTC
MEAN_ELEMENT_THEORY = SGP/SGP4

EPOCH          = 2026-03-06T19:35:04.870176
MEAN_MOTION    = 15.81000791
ECCENTRICITY   = .0000299
INCLINATION    = 53.1594
RA_OF_ASC_NODE = 225.6696
ARG_OF_PERICENTER = 111.8794
MEAN_ANOMALY   = 248.2261

EPHEMERIS_TYPE = 0
CLASSIFICATION_TYPE = U
NORAD_CAT_ID   = 67860
ELEMENT_SET_NO = 999
REV_AT_EPOCH   = 351
BSTAR          = .15475E-2
MEAN_MOTION_DOT = .318141E-2
MEAN_MOTION_DDOT = 0

CCSDS_OMM_VERS = 2.0
CREATION_DATE  = 
ORIGINATOR     = 

OBJECT_NAME    = STARLINK-36325
OBJECT_ID      = 2026-034M
CENTER_NAME    = EARTH
REF_FRAME      = TEME
TIME_SYSTEM    = UTC
MEAN_ELEMENT_THEORY = SGP/SGP4

EPOCH          = 2026-03-06T19:34:00.223968
MEAN_MOTION    = 15.80939352
ECCENTRICITY   = .0000652
INCLINATION    = 53.1597
RA_OF_ASC_NODE = 225.6649
ARG_OF_PERICENTER = 47.5007
MEAN_ANOMALY   = 312.6071

EPHEMERIS_TYPE = 0
CLASSIFICATION_TYPE = U
NORAD_CAT_ID   = 67861
ELEMENT_SET_NO = 999
REV_AT_EPOCH   = 348
BSTAR          = .78938E-3
MEAN_MOTION_DOT = .158474E-2
MEAN_MOTION_DDOT = 0

